{
    "links": {
        "self": "http://www.neowsapp.com/rest/v1/neo/3471523?api_key=iIulBulltgU6a56xZRHN4H3l9WmuAYTsLGpBGhQ2"
    },
    "id": "3471523",
    "neo_reference_id": "3471523",
    "name": "(2009 TP8)",
    "designation": "2009 TP8",
    "nasa_jpl_url": "http://ssd.jpl.nasa.gov/sbdb.cgi?sstr=3471523",
    "absolute_magnitude_h": 26.2,
    "estimated_diameter": {
        "kilometers": {
            "estimated_diameter_min": 0.0152951935,
            "estimated_diameter_max": 0.0342010925
        },
        "meters": {
            "estimated_diameter_min": 15.2951935344,
            "estimated_diameter_max": 34.201092472
        },
        "miles": {
            "estimated_diameter_min": 0.0095039897,
            "estimated_diameter_max": 0.021251567
        },
        "feet": {
            "estimated_diameter_min": 50.1810827555,
            "estimated_diameter_max": 112.2083122258
        }
    },
    "is_potentially_hazardous_asteroid": false,
    "close_approach_data": [
        {
            "close_approach_date": "2009-10-15",
            "close_approach_date_full": "2009-Oct-15 09:12",
            "epoch_date_close_approach": 1255597920000,
            "relative_velocity": {
                "kilometers_per_second": "7.2586873401",
                "kilometers_per_hour": "26131.274424481",
                "miles_per_hour": "16236.9577111449"
            },
            "miss_distance": {
                "astronomical": "0.0618922925",
                "lunar": "24.0761017825",
                "kilometers": "9258955.127416975",
                "miles": "5753247.934525255"
            },
            "orbiting_body": "Earth"
        }
    ],
    "orbital_data": {
        "orbit_id": "6",
        "orbit_determination_date": "2017-04-06 08:59:37",
        "first_observation_date": "2009-10-15",
        "last_observation_date": "2009-10-15",
        "data_arc_in_days": null,
        "observations_used": 23,
        "orbit_uncertainty": "9",
        "minimum_orbit_intersection": ".0617185",
        "jupiter_tisserand_invariant": "5.027",
        "epoch_osculation": "2455119.5",
        "eccentricity": ".1711059530273139",
        "semi_major_axis": "1.276042780865695",
        "inclination": "13.28081866793259",
        "ascending_node_longitude": "203.9880289075458",
        "orbital_period": "526.4974585873535",
        "perihelion_distance": "1.057704264742046",
        "perihelion_argument": "172.9291254209186",
        "aphelion_distance": "1.494381296989343",
        "perihelion_time": "2455114.411678727906",
        "mean_anomaly": "3.479210826332828",
        "mean_motion": ".68376398428573",
        "equinox": "J2000",
        "orbit_class": {
            "orbit_class_type": "AMO",
            "orbit_class_description": "Near-Earth asteroid orbits similar to that of 1221 Amor",
            "orbit_class_range": "1.017 AU < q (perihelion) < 1.3 AU"
        }
    },
    "is_sentry_object": false
}